ONEWEB-0427             
1 50499U 21132AG  25322.56694025  .00000013  00000+0 -60946-6 0  9992
2 50499  87.9211  17.2647 0001596  97.5541 262.5772 13.18684690193859
ONEWEB-0429             
1 50500U 21132AH  25322.17435082  .00000068  00000+0  14053-3 0  9992
2 50500  87.9214  17.3743 0001958  98.6562 261.4792 13.18689145193771
ONEWEB-0430             
1 50501U 21132AJ  25322.84569468 -.00000271  00000+0 -72120-3 0  9990
2 50501  87.9216  17.2359 0001961  91.9312 268.2045 13.18685931193909
ONEWEB-0432             
1 50502U 21132AK  25322.57393531  .00000060  00000+0  11869-3 0  9994
2 50502  87.9205  17.2630 0001279  70.6874 289.4396 13.18674297193827
ONEWEB-0440             
1 50503U 21132AL  25322.56198788  .00000081  00000+0  17220-3 0  9991
2 50503  87.9212  17.2823 0002067 108.6265 251.5092 13.18688632193812
ONEWEB-0450             
1 50504U 21132AM  25322.55554263  .00000101  00000+0  22465-3 0  9995
2 50504  87.9211  17.3073 0002091  96.3745 263.7625 13.18686162193849
ONEWEB-0410             
1 51622U 22012A   25322.64626394 -.00000028  00000+0 -10545-3 0  9996
2 51622  87.9141  47.7073 0000561 150.1671 209.9493 13.17646977185976
ONEWEB-0411             
1 51623U 22012B   25322.72444421 -.00000274  00000+0 -82213-3 0  9999
2 51623  87.8802  78.2209 0001824  85.5243 274.6093 13.10370446181721
